{"type": "FeatureCollection", "features": [ {"type": "Feature", "properties": {"norad_id": 17070, "name": "POLAR BEAR", "group": "nnss", "lat": -10.46082100910913, "lon": 3.597843766472503, "alt_km": 984.3319410727781, "timestamp": "2025-12-18T21:31:51.270061+00:00", "meta": {"OBJECT_NAME": "POLAR BEAR", "OBJECT_ID": "1986-088A", "EPOCH": "2025-12-18T07:28:44.043168", "MEAN_MOTION": 13.7525194, "ECCENTRICITY": 0.00412261, "INCLINATION": 89.6171, "RA_OF_ASC_NODE": 183.5507, "ARG_OF_PERICENTER": 103.1841, "MEAN_ANOMALY": 69.6971, "EPHEMERIS_TYPE": 0, "CLASSIFICATION_TYPE": "U", "NORAD_CAT_ID": 17070, "ELEMENT_SET_NO": 999, "REV_AT_EPOCH": 96055, "BSTAR": 0.00010886213, "MEAN_MOTION_DOT": 1.17e-06, "MEAN_MOTION_DDOT": 0}, "tle": {"line1": "1 17070U 86088A   25352.31162087  .00000117  00000+0  10886-3 0  9994", "line2": "2 17070  89.6171 183.5507 0041226 103.1841  69.6971 13.75251940960551"}}, "geometry": {"type": "Point", "coordinates": [3.597843766472503, -10.46082100910913]}}, {"type": "Feature", "properties": {"norad_id": 18361, "name": "OSCAR 27", "group": "nnss", "lat": 45.41268728547454, "lon": -100.11742824494948, "alt_km": 1061.998439237772, "timestamp": "2025-12-18T21:31:51.270072+00:00", "meta": {"OBJECT_NAME": "OSCAR 27", "OBJECT_ID": "1987-080A", "EPOCH": "2025-12-18T06:34:17.331744", "MEAN_MOTION": 13.44907819, "ECCENTRICITY": 0.01033512, "INCLINATION": 90.3742, "RA_OF_ASC_NODE": 79.4794, "ARG_OF_PERICENTER": 207.8234, "MEAN_ANOMALY": 151.7363, "EPHEMERIS_TYPE": 0, "CLASSIFICATION_TYPE": "U", "NORAD_CAT_ID": 18361, "ELEMENT_SET_NO": 999, "REV_AT_EPOCH": 87631, "BSTAR": 0.00014486726, "MEAN_MOTION_DOT": 9.6e-07, "MEAN_MOTION_DDOT": 0}, "tle": {"line1": "1 18361U 87080A   25352.27381171  .00000096  00000+0  14487-3 0  9990", "line2": "2 18361  90.3742  79.4794 0103351 207.8234 151.7363 13.44907819876312"}}, "geometry": {"type": "Point", "coordinates": [-100.11742824494948, 45.41268728547454]}}, {"type": "Feature", "properties": {"norad_id": 18362, "name": "OSCAR 29", "group": "nnss", "lat": 43.435303391268064, "lon": -99.68244309805672, "alt_km": 1092.2048533430689, "timestamp": "2025-12-18T21:31:51.270082+00:00", "meta": {"OBJECT_NAME": "OSCAR 29", "OBJECT_ID": "1987-080B", "EPOCH": "2025-12-18T06:52:01.766784", "MEAN_MOTION": 13.44449396, "ECCENTRICITY": 0.01042411, "INCLINATION": 90.3753, "RA_OF_ASC_NODE": 79.9391, "ARG_OF_PERICENTER": 231.0702, "MEAN_ANOMALY": 191.1576, "EPHEMERIS_TYPE": 0, "CLASSIFICATION_TYPE": "U", "NORAD_CAT_ID": 18362, "ELEMENT_SET_NO": 999, "REV_AT_EPOCH": 87584, "BSTAR": 0.00012990746, "MEAN_MOTION_DOT": 8.6e-07, "MEAN_MOTION_DDOT": 0}, "tle": {"line1": "1 18362U 87080B   25352.28613156  .00000086  00000+0  12991-3 0  9990", "line2": "2 18362  90.3753  79.9391 0104241 231.0702 191.1576 13.44449396875843"}}, "geometry": {"type": "Point", "coordinates": [-99.68244309805672, 43.435303391268064]}}, {"type": "Feature", "properties": {"norad_id": 19070, "name": "OSCAR 23", "group": "nnss", "lat": -86.33144627356884, "lon": -168.42766836646362, "alt_km": 1193.4852487294165, "timestamp": "2025-12-18T21:31:51.270093+00:00", "meta": {"OBJECT_NAME": "OSCAR 23", "OBJECT_ID": "1988-033A", "EPOCH": "2025-12-18T07:36:15.262848", "MEAN_MOTION": 13.27788111, "ECCENTRICITY": 0.01899926, "INCLINATION": 90.3207, "RA_OF_ASC_NODE": 16.5655, "ARG_OF_PERICENTER": 164.4315, "MEAN_ANOMALY": 207.6469, "EPHEMERIS_TYPE": 0, "CLASSIFICATION_TYPE": "U", "NORAD_CAT_ID": 19070, "ELEMENT_SET_NO": 999, "REV_AT_EPOCH": 82327, "BSTAR": 0.00020178652, "MEAN_MOTION_DOT": 1.09e-06, "MEAN_MOTION_DDOT": 0}, "tle": {"line1": "1 19070U 88033A   25352.31684332  .00000109  00000+0  20179-3 0  9997", "line2": "2 19070  90.3207  16.5655 0189992 164.4315 207.6469 13.27788111823275"}}, "geometry": {"type": "Point", "coordinates": [-168.42766836646362, -86.33144627356884]}}, {"type": "Feature", "properties": {"norad_id": 19071, "name": "OSCAR 32", "group": "nnss", "lat": 16.51922450204315, "lon": 16.620578568553412, "alt_km": 1250.749555449167, "timestamp": "2025-12-18T21:31:51.270103+00:00", "meta": {"OBJECT_NAME": "OSCAR 32", "OBJECT_ID": "1988-033B", "EPOCH": "2025-12-18T01:49:41.990016", "MEAN_MOTION": 13.27954782, "ECCENTRICITY": 0.01887616, "INCLINATION": 90.3212, "RA_OF_ASC_NODE": 16.6903, "ARG_OF_PERICENTER": 151.9982, "MEAN_ANOMALY": 263.8864, "EPHEMERIS_TYPE": 0, "CLASSIFICATION_TYPE": "U", "NORAD_CAT_ID": 19071, "ELEMENT_SET_NO": 999, "REV_AT_EPOCH": 82336, "BSTAR": 0.00018593495, "MEAN_MOTION_DOT": 1.02e-06, "MEAN_MOTION_DDOT": 0}, "tle": {"line1": "1 19071U 88033B   25352.07618044  .00000102  00000+0  18593-3 0  9998", "line2": "2 19071  90.3212  16.6903 0188761 151.9982 263.8864 13.27954782823365"}}, "geometry": {"type": "Point", "coordinates": [16.620578568553412, 16.51922450204315]}}, {"type": "Feature", "properties": {"norad_id": 19223, "name": "NOVA 2", "group": "nnss", "lat": 75.2687609224358, "lon": -101.78376729428334, "alt_km": 1172.1947720541011, "timestamp": "2025-12-18T21:31:51.270128+00:00", "meta": {"OBJECT_NAME": "NOVA 2", "OBJECT_ID": "1988-052A", "EPOCH": "2025-12-18T06:46:41.765376", "MEAN_MOTION": 13.22936356, "ECCENTRICITY": 0.00301145, "INCLINATION": 89.9872, "RA_OF_ASC_NODE": 78.2657, "ARG_OF_PERICENTER": 1.6814, "MEAN_ANOMALY": 56.8639, "EPHEMERIS_TYPE": 0, "CLASSIFICATION_TYPE": "U", "NORAD_CAT_ID": 19223, "ELEMENT_SET_NO": 999, "REV_AT_EPOCH": 81021, "BSTAR": 0.00013955133, "MEAN_MOTION_DOT": 6.7e-07, "MEAN_MOTION_DDOT": 0}, "tle": {"line1": "1 19223U 88052A   25352.28242784  .00000067  00000+0  13955-3 0  9992", "line2": "2 19223  89.9872  78.2657 0030114   1.6814  56.8639 13.22936356810215"}}, "geometry": {"type": "Point", "coordinates": [-101.78376729428334, 75.2687609224358]}}, {"type": "Feature", "properties": {"norad_id": 19419, "name": "OSCAR 25", "group": "nnss", "lat": -76.9256041294274, "lon": -159.88290178328083, "alt_km": 1044.763008513717, "timestamp": "2025-12-18T21:31:51.270141+00:00", "meta": {"OBJECT_NAME": "OSCAR 25", "OBJECT_ID": "1988-074A", "EPOCH": "2025-12-18T07:47:16.546848", "MEAN_MOTION": 13.42624399, "ECCENTRICITY": 0.00947295, "INCLINATION": 90.0342, "RA_OF_ASC_NODE": 20.2625, "ARG_OF_PERICENTER": 229.662, "MEAN_ANOMALY": 140.5998, "EPHEMERIS_TYPE": 0, "CLASSIFICATION_TYPE": "U", "NORAD_CAT_ID": 19419, "ELEMENT_SET_NO": 999, "REV_AT_EPOCH": 82715, "BSTAR": 0.00017443923, "MEAN_MOTION_DOT": 1.1e-06, "MEAN_MOTION_DDOT": 0}, "tle": {"line1": "1 19419U 88074A   25352.32449707  .00000110  00000+0  17444-3 0  9998", "line2": "2 19419  90.0342  20.2625 0094729 229.6620 140.5998 13.42624399827151"}}, "geometry": {"type": "Point", "coordinates": [-159.88290178328083, -76.9256041294274]}}, {"type": "Feature", "properties": {"norad_id": 19420, "name": "OSCAR 31", "group": "nnss", "lat": 41.691656491283766, "lon": -159.3527821516274, "alt_km": 1088.3463866467746, "timestamp": "2025-12-18T21:31:51.270152+00:00", "meta": {"OBJECT_NAME": "OSCAR 31", "OBJECT_ID": "1988-074B", "EPOCH": "2025-12-18T03:17:17.308896", "MEAN_MOTION": 13.42585487, "ECCENTRICITY": 0.00930705, "INCLINATION": 90.0357, "RA_OF_ASC_NODE": 20.6127, "ARG_OF_PERICENTER": 224.341, "MEAN_ANOMALY": 203.2452, "EPHEMERIS_TYPE": 0, "CLASSIFICATION_TYPE": "U", "NORAD_CAT_ID": 19420, "ELEMENT_SET_NO": 999, "REV_AT_EPOCH": 82723, "BSTAR": 0.00014518589, "MEAN_MOTION_DOT": 9.3e-07, "MEAN_MOTION_DDOT": 0}, "tle": {"line1": "1 19420U 88074B   25352.13700589  .00000093  00000+0  14519-3 0  9997", "line2": "2 19420  90.0357  20.6127 0093070 224.3410 203.2452 13.42585487827232"}}, "geometry": {"type": "Point", "coordinates": [-159.3527821516274, 41.691656491283766]}}]}